{
    "links": {
        "self": "http://www.neowsapp.com/rest/v1/neo/3757199?api_key=iIulBulltgU6a56xZRHN4H3l9WmuAYTsLGpBGhQ2"
    },
    "id": "3757199",
    "neo_reference_id": "3757199",
    "name": "(2016 PR26)",
    "designation": "2016 PR26",
    "nasa_jpl_url": "http://ssd.jpl.nasa.gov/sbdb.cgi?sstr=3757199",
    "absolute_magnitude_h": 23.5,
    "estimated_diameter": {
        "kilometers": {
            "estimated_diameter_min": 0.0530340723,
            "estimated_diameter_max": 0.1185877909
        },
        "meters": {
            "estimated_diameter_min": 53.0340723319,
            "estimated_diameter_max": 118.5877908577
        },
        "miles": {
            "estimated_diameter_min": 0.0329538346,
            "estimated_diameter_max": 0.0736870142
        },
        "feet": {
            "estimated_diameter_min": 173.9963058693,
            "estimated_diameter_max": 389.0675677576
        }
    },
    "is_potentially_hazardous_asteroid": false,
    "close_approach_data": [
        {
            "close_approach_date": "1989-09-06",
            "close_approach_date_full": "1989-Sep-06 20:24",
            "epoch_date_close_approach": 621116640000,
            "relative_velocity": {
                "kilometers_per_second": "7.1202802309",
                "kilometers_per_hour": "25633.0088313615",
                "miles_per_hour": "15927.3548485757"
            },
            "miss_distance": {
                "astronomical": "0.1207619304",
                "lunar": "46.9763909256",
                "kilometers": "18065727.564928248",
                "miles": "11225522.5744479024"
            },
            "orbiting_body": "Earth"
        },
        {
            "close_approach_date": "2016-09-11",
            "close_approach_date_full": "2016-Sep-11 15:54",
            "epoch_date_close_approach": 1473609240000,
            "relative_velocity": {
                "kilometers_per_second": "6.6822573867",
                "kilometers_per_hour": "24056.1265919909",
                "miles_per_hour": "14947.541548229"
            },
            "miss_distance": {
                "astronomical": "0.0841363159",
                "lunar": "32.7290268851",
                "kilometers": "12586613.648287133",
                "miles": "7820959.0583551154"
            },
            "orbiting_body": "Earth"
        },
        {
            "close_approach_date": "2043-08-14",
            "close_approach_date_full": "2043-Aug-14 01:43",
            "epoch_date_close_approach": 2323129380000,
            "relative_velocity": {
                "kilometers_per_second": "14.4117471975",
                "kilometers_per_hour": "51882.2899108477",
                "miles_per_hour": "32237.6373059931"
            },
            "miss_distance": {
                "astronomical": "0.328293774",
                "lunar": "127.706278086",
                "kilometers": "49112049.32466138",
                "miles": "30516812.366951844"
            },
            "orbiting_body": "Earth"
        }
    ],
    "orbital_data": {
        "orbit_id": "23",
        "orbit_determination_date": "2018-02-10 07:08:07",
        "first_observation_date": "2016-08-07",
        "last_observation_date": "2016-11-07",
        "data_arc_in_days": 92,
        "observations_used": 121,
        "orbit_uncertainty": "5",
        "minimum_orbit_intersection": ".082356",
        "jupiter_tisserand_invariant": "3.255",
        "epoch_osculation": "2459000.5",
        "eccentricity": ".5585048893338443",
        "semi_major_axis": "2.457203097808207",
        "inclination": "3.600928368403429",
        "ascending_node_longitude": "343.0414800747088",
        "orbital_period": "1406.889563904357",
        "perihelion_distance": "1.084843153596055",
        "perihelion_argument": "15.33126160566371",
        "aphelion_distance": "3.829563042020359",
        "perihelion_time": "2459055.811821759520",
        "mean_anomaly": "345.8466106051939",
        "mean_motion": ".2558836238723237",
        "equinox": "J2000",
        "orbit_class": {
            "orbit_class_type": "AMO",
            "orbit_class_description": "Near-Earth asteroid orbits similar to that of 1221 Amor",
            "orbit_class_range": "1.017 AU < q (perihelion) < 1.3 AU"
        }
    },
    "is_sentry_object": false
}